{
    "links": {
        "self": "http://www.neowsapp.com/rest/v1/neo/3893390?api_key=iIulBulltgU6a56xZRHN4H3l9WmuAYTsLGpBGhQ2"
    },
    "id": "3893390",
    "neo_reference_id": "3893390",
    "name": "(2019 WD1)",
    "designation": "2019 WD1",
    "nasa_jpl_url": "http://ssd.jpl.nasa.gov/sbdb.cgi?sstr=3893390",
    "absolute_magnitude_h": 20.1,
    "estimated_diameter": {
        "kilometers": {
            "estimated_diameter_min": 0.2538370294,
            "estimated_diameter_max": 0.5675968529
        },
        "meters": {
            "estimated_diameter_min": 253.8370293645,
            "estimated_diameter_max": 567.5968528656
        },
        "miles": {
            "estimated_diameter_min": 0.1577269688,
            "estimated_diameter_max": 0.3526882241
        },
        "feet": {
            "estimated_diameter_min": 832.7986794202,
            "estimated_diameter_max": 1862.1944587557
        }
    },
    "is_potentially_hazardous_asteroid": false,
    "close_approach_data": [
        {
            "close_approach_date": "2019-11-06",
            "close_approach_date_full": "2019-Nov-06 02:01",
            "epoch_date_close_approach": 1573005660000,
            "relative_velocity": {
                "kilometers_per_second": "20.2741390905",
                "kilometers_per_hour": "72986.9007257636",
                "miles_per_hour": "45351.2217315169"
            },
            "miss_distance": {
                "astronomical": "0.2750259015",
                "lunar": "106.9850756835",
                "kilometers": "41143289.059229805",
                "miles": "25565254.344809109"
            },
            "orbiting_body": "Earth"
        },
        {
            "close_approach_date": "2028-10-27",
            "close_approach_date_full": "2028-Oct-27 19:04",
            "epoch_date_close_approach": 1856286240000,
            "relative_velocity": {
                "kilometers_per_second": "16.4880587841",
                "kilometers_per_hour": "59357.0116227924",
                "miles_per_hour": "36882.1386941734"
            },
            "miss_distance": {
                "astronomical": "0.1556017983",
                "lunar": "60.5290995387",
                "kilometers": "23277697.593849621",
                "miles": "14464090.5760259298"
            },
            "orbiting_body": "Earth"
        }
    ],
    "orbital_data": {
        "orbit_id": "9",
        "orbit_determination_date": "2020-01-04 05:11:44",
        "first_observation_date": "2019-11-21",
        "last_observation_date": "2020-01-04",
        "data_arc_in_days": 44,
        "observations_used": 71,
        "orbit_uncertainty": "6",
        "minimum_orbit_intersection": ".159224",
        "jupiter_tisserand_invariant": "2.954",
        "epoch_osculation": "2459000.5",
        "eccentricity": ".6113278953735126",
        "semi_major_axis": "2.720824967920634",
        "inclination": "24.45193469758851",
        "ascending_node_longitude": "44.30794421582122",
        "orbital_period": "1639.265630200904",
        "perihelion_distance": "1.057508766602008",
        "perihelion_argument": "315.5121252747059",
        "aphelion_distance": "4.38414116923926",
        "perihelion_time": "2458766.645996262251",
        "mean_anomaly": "51.35680257950135",
        "mean_motion": ".2196105337460649",
        "equinox": "J2000",
        "orbit_class": {
            "orbit_class_type": "AMO",
            "orbit_class_description": "Near-Earth asteroid orbits similar to that of 1221 Amor",
            "orbit_class_range": "1.017 AU < q (perihelion) < 1.3 AU"
        }
    },
    "is_sentry_object": false
}